{
    "links": {
        "self": "http://www.neowsapp.com/rest/v1/neo/3720917?api_key=iIulBulltgU6a56xZRHN4H3l9WmuAYTsLGpBGhQ2"
    },
    "id": "3720917",
    "neo_reference_id": "3720917",
    "name": "(2015 LH)",
    "designation": "2015 LH",
    "nasa_jpl_url": "http://ssd.jpl.nasa.gov/sbdb.cgi?sstr=3720917",
    "absolute_magnitude_h": 27.2,
    "estimated_diameter": {
        "kilometers": {
            "estimated_diameter_min": 0.0096506147,
            "estimated_diameter_max": 0.0215794305
        },
        "meters": {
            "estimated_diameter_min": 9.6506146958,
            "estimated_diameter_max": 21.5794304844
        },
        "miles": {
            "estimated_diameter_min": 0.0059966121,
            "estimated_diameter_max": 0.0134088323
        },
        "feet": {
            "estimated_diameter_min": 31.6621227185,
            "estimated_diameter_max": 70.7986587106
        }
    },
    "is_potentially_hazardous_asteroid": false,
    "close_approach_data": [
        {
            "close_approach_date": "2015-06-10",
            "close_approach_date_full": "2015-Jun-10 06:58",
            "epoch_date_close_approach": 1433919480000,
            "relative_velocity": {
                "kilometers_per_second": "8.5118503132",
                "kilometers_per_hour": "30642.6611275984",
                "miles_per_hour": "19040.1579656458"
            },
            "miss_distance": {
                "astronomical": "0.0094547549",
                "lunar": "3.6778996561",
                "kilometers": "1414411.194412063",
                "miles": "878874.3622619494"
            },
            "orbiting_body": "Earth"
        },
        {
            "close_approach_date": "2015-06-10",
            "close_approach_date_full": "2015-Jun-10 13:30",
            "epoch_date_close_approach": 1433943000000,
            "relative_velocity": {
                "kilometers_per_second": "8.003436237",
                "kilometers_per_hour": "28812.3704533398",
                "miles_per_hour": "17902.8865186322"
            },
            "miss_distance": {
                "astronomical": "0.0080746634",
                "lunar": "3.1410440626",
                "kilometers": "1207952.445606958",
                "miles": "750586.8445257004"
            },
            "orbiting_body": "Moon"
        },
        {
            "close_approach_date": "2028-09-13",
            "close_approach_date_full": "2028-Sep-13 11:02",
            "epoch_date_close_approach": 1852455720000,
            "relative_velocity": {
                "kilometers_per_second": "22.6601688036",
                "kilometers_per_hour": "81576.6076930644",
                "miles_per_hour": "50688.5315968377"
            },
            "miss_distance": {
                "astronomical": "0.4917671657",
                "lunar": "191.2974274573",
                "kilometers": "73567320.524657059",
                "miles": "45712613.2519790542"
            },
            "orbiting_body": "Earth"
        },
        {
            "close_approach_date": "2078-05-01",
            "close_approach_date_full": "2078-May-01 06:31",
            "epoch_date_close_approach": 3418612260000,
            "relative_velocity": {
                "kilometers_per_second": "22.4475212479",
                "kilometers_per_hour": "80811.0764922982",
                "miles_per_hour": "50212.8602793394"
            },
            "miss_distance": {
                "astronomical": "0.4776183564",
                "lunar": "185.7935406396",
                "kilometers": "71450688.790340868",
                "miles": "44397399.2795572584"
            },
            "orbiting_body": "Earth"
        },
        {
            "close_approach_date": "2154-09-12",
            "close_approach_date_full": "2154-Sep-12 19:20",
            "epoch_date_close_approach": 5828527200000,
            "relative_velocity": {
                "kilometers_per_second": "20.6194162428",
                "kilometers_per_hour": "74229.898473999",
                "miles_per_hour": "46123.572193469"
            },
            "miss_distance": {
                "astronomical": "0.4216998375",
                "lunar": "164.0412367875",
                "kilometers": "63085397.469346125",
                "miles": "39199448.284881525"
            },
            "orbiting_body": "Earth"
        }
    ],
    "orbital_data": {
        "orbit_id": "6",
        "orbit_determination_date": "2017-04-06 08:33:13",
        "first_observation_date": "2015-06-06",
        "last_observation_date": "2015-06-11",
        "data_arc_in_days": 5,
        "observations_used": 32,
        "orbit_uncertainty": "7",
        "minimum_orbit_intersection": ".00313526",
        "jupiter_tisserand_invariant": "3.793",
        "epoch_osculation": "2459000.5",
        "eccentricity": ".481740912362343",
        "semi_major_axis": "1.901711840607216",
        "inclination": "3.934352823921338",
        "ascending_node_longitude": "83.58412441853734",
        "orbital_period": "957.8896763633473",
        "perihelion_distance": ".9855794434628252",
        "perihelion_argument": "201.6251192411514",
        "aphelion_distance": "2.817844237751608",
        "perihelion_time": "2459121.409417835270",
        "mean_anomaly": "314.55907763204",
        "mean_motion": ".3758261612827369",
        "equinox": "J2000",
        "orbit_class": {
            "orbit_class_type": "APO",
            "orbit_class_description": "Near-Earth asteroid orbits which cross the Earth’s orbit similar to that of 1862 Apollo",
            "orbit_class_range": "a (semi-major axis) > 1.0 AU; q (perihelion) < 1.017 AU"
        }
    },
    "is_sentry_object": false
}